INTELSAT 30 (IS-30)     
1 40271U 14062A   17251.73243588 -.00000164  00000-0  00000-0 0  9995
2 40271   0.0232 149.8013 0001716 305.4868  61.3077  1.00270806 10647
ARSAT 1                 
1 40272U 14062B   17252.54632660 -.00000274  00000-0  00000-0 0  9991
2 40272   0.0217 133.3970 0001247  46.9975 293.2710  1.00272801 10508
EXPRESS-AM6             
1 40277U 14064A   17252.59170012  .00000083  00000-0  00000-0 0  9998
2 40277   0.0502 306.9779 0000643   1.7504 306.1101  1.00270721  9472
GSAT-16                 
1 40332U 14078A   17251.88026723  .00000071  00000-0  00000-0 0  9992
2 40332   0.0111 204.4840 0005682 266.1881 249.4012  1.00272226 10018
DIRECTV 14              
1 40333U 14078B   17252.18452118 -.00000139  00000-0  00000-0 0  9994
2 40333   0.0489 283.6303 0001007  60.6960 331.2928  1.00272192 10122
YAMAL 401               
1 40345U 14082A   17252.60462657 -.00000243  00000-0  00000-0 0  9994
2 40345   0.0290 143.3565 0000204 111.3122  41.7770  1.00270459 10299
ASTRA 2G                
1 40364U 14089A   17251.95451975  .00000136  00000-0  00000-0 0  9990
2 40364   0.0064 301.8563 0002735 159.0433 259.1437  1.00268395  9854
FENGYUN 2G              
1 40367U 14090A   17252.63408280 -.00000344  00000-0  00000-0 0  9994
2 40367   0.2827 242.3797 0003479  24.6838  54.6985  1.00267121  9926
INMARSAT 5-F2           
1 40384U 15005A   17251.33958529 -.00000299  00000-0  00000-0 0  9991
2 40384   0.0218 158.9719 0000459 299.1422 316.7204  1.00269462  9551
ABS-3A                  
1 40424U 15010A   17252.04098943 -.00000040  00000-0  00000-0 0  9990
2 40424   0.0109 137.4144 0002223 313.0344 269.5893  1.00271482  9317
EUTELSAT 115 WEST B     
1 40425U 15010B   17251.35364684 -.00000038  00000-0  00000-0 0  9999
2 40425   0.0129 296.3125 0000355  44.8173  18.8810  1.00272242  9282
EXPRESS-AM7             
1 40505U 15012A   17252.43170961  .00000136  00000-0  00000+0 0  9990
2 40505   0.0067 149.1926 0002576  13.3330  21.5554  1.00273601  9241
IRNSS-1D                
1 40547U 15018A   17252.53653048 -.00000306  00000-0  00000+0 0  9995
2 40547  28.9162 293.6941 0020477 185.8036 174.2199  1.00270086  9135
THOR 7                  
1 40613U 15022A   17252.03440164 -.00000022  00000-0  00000-0 0  9998
2 40613   0.0220 218.3957 0002751 310.7679 190.8550  1.00272883  8718
TURKMENALEM52E/MONACOSAT
1 40617U 15023A   17251.88853722  .00000090  00000-0  00000-0 0  9997
2 40617   0.0156 115.1777 0002406  56.4306 188.4084  1.00272376  8714
DIRECTV 15              
1 40663U 15026A   17252.31719626 -.00000118  00000-0  00000+0 0  9995
2 40663   0.0113 123.2784 0000761  96.5047 140.2243  1.00273185  8425
SKY MEXICO-1            
1 40664U 15026B   17252.25085641 -.00000249  00000-0  00000+0 0  9997
2 40664   0.0098 198.7911 0002320 340.9380 180.2839  1.00272162  8425
METEOSAT-11 (MSG-4)     
1 40732U 15034A   17251.69643664 -.00000043  00000-0  00000-0 0  9997
2 40732   1.6863 236.1310 0000738   4.2108 354.9371  1.00268180  7927
STAR ONE C4             
1 40733U 15034B   17252.22647109 -.00000279  00000-0  00000-0 0  9997
2 40733   0.0148  80.2958 0000949 117.7783 161.9226  1.00270364  7928
INTELSAT 34 (IS-34)     
1 40874U 15039A   17252.18634580 -.00000300  00000-0  00000+0 0  9996
2 40874   0.0217 159.7581 0000208 318.6594 241.5846  1.00270632  7566
EUTELSAT 8 WEST B       
1 40875U 15039B   17252.05480948 -.00000080  00000-0  00000-0 0  9996
2 40875   0.0665   2.5896 0002312 168.4655 188.9618  1.00271899  7562
GSAT-6                  
1 40880U 15041A   17252.79972275 -.00000179  00000-0  00000+0 0  9993
2 40880   0.1319  99.1741 0007850 158.1781 102.5737  1.00272236  7520
INMARSAT 5-F3           
1 40882U 15042A   17251.53509566  .00000036  00000-0  00000-0 0  9998
2 40882   0.0227 159.8658 0000462 182.0203  18.1122  1.00268235  7442
TJS-1                   
1 40892U 15046A   17252.54481272 -.00000170  00000-0  00000-0 0  9998
2 40892   0.0546 144.0609 0002870 186.2582   9.6699  1.00272307  7438
EXPRESS-AM8             
1 40895U 15048A   17252.25742999 -.00000125  00000-0  00000-0 0  9997
2 40895   0.0321 290.8427 0000892 342.2546 154.0840  1.00272322  7267
SKY MUSTER (NBN1A)      
1 40940U 15054A   17251.64411116 -.00000292  00000-0  00000+0 0  9995
2 40940   0.0196 231.9479 0001880 299.6596 188.4079  1.00272348  7161
ARSAT 2                 
1 40941U 15054B   17252.25699988 -.00000239  00000-0  00000-0 0  9991
2 40941   0.0237 120.5481 0001617  46.1183 193.3507  1.00272683  7207
MORELOS 3               
1 40946U 15056A   17252.26083821 -.00000058  00000-0  00000-0 0  9991
2 40946   6.3174 329.2724 0002861 181.4393 178.5706  1.00272236  7173
APSTAR 9                
1 40982U 15059A   17252.63642254 -.00000280  00000-0  00000+0 0  9992
2 40982   0.0336 273.5752 0001142 314.6473 131.7807  1.00271048  7045
TURKSAT 4B              
1 40984U 15060A   17252.05655016  .00000101  00000-0  00000+0 0  9993
2 40984   0.0295 271.1685 0002315 246.4678 260.9943  1.00270632  6999
CHINASAT 2C (ZX 2C)     
1 41021U 15063A   17252.65733793 -.00000339  00000-0  00000-0 0  9999
2 41021   0.0388 284.4837 0001895   5.3527  39.1371  1.00271382  6891
GSAT-15                 
1 41028U 15065A   17251.77348839 -.00000272  00000-0  00000+0 0  9998
2 41028   0.0409 246.7100 0001263 281.8014 191.5040  1.00270944  6740
BADR-7 (ARABSAT-6B)     
1 41029U 15065B   17251.96049927  .00000131  00000-0  00000+0 0  9999
2 41029   0.0606 258.9020 0004637 322.9634 138.1119  1.00270092  6792
LAOSAT 1                
1 41034U 15067A   17251.67659662 -.00000357  00000-0  00000+0 0  9999
2 41034   0.0523 304.3740 0003661 255.2866 160.3378  1.00270864  6726
TELSTAR 12V             
1 41036U 15068A   17252.07414288 -.00000133  00000-0  00000+0 0  9992
2 41036   0.0205 144.5612 0001944  27.6051 187.8495  1.00271848  6611
CHINASAT 1C (ZX 1C)     
1 41103U 15073A   17252.60283932 -.00000166  00000-0  00000-0 0  9999
2 41103   0.0419 280.1946 0003491 344.3995  22.7914  1.00273001  6554
ELEKTRO-L 2             
1 41105U 15074A   17252.82872475 -.00000112  00000-0  00000+0 0  9992
2 41105   0.0549  75.1593 0002203 183.9637 104.3105  1.00271797  6414
COSMOS 2513             
1 41121U 15075A   17252.57814950 -.00000153  00000-0  00000-0 0  9993
2 41121   0.0598 114.0117 0002872  84.7144  78.4746  1.00271787  6482
EXPRESS-AMU1            
1 41191U 15082A   17251.83952855  .00000141  00000-0  00000-0 0  9999
2 41191   0.0158 137.3140 0001997  13.6257 175.5204  1.00276444  6380
GAOFEN 4                
1 41194U 15083A   17252.74998054 -.00000349  00000-0  00000+0 0  9995
2 41194   0.0472 115.8417 0004758 115.2428 133.6323  1.00270917  6383
BELINTERSAT-1           
1 41238U 16001A   17252.56279752  .00000092  00000-0  00000-0 0  9997
2 41238   0.0485 290.0983 0001917 197.5836 115.2400  1.00274078  6159
IRNSS-1E                
1 41241U 16003A   17251.03939307 -.00000283  00000-0  00000+0 0  9995
2 41241  28.9117 113.2579 0018260 181.9020 178.2363  1.00272747  6071
INTELSAT 29E (IS-29E)   
1 41308U 16004A   17252.17108489 -.00000296  00000-0  00000+0 0  9999
2 41308   0.0283 244.2226 0001884 285.1655 190.6286  1.00272326  6041
EUTELSAT 9B             
1 41310U 16005A   17252.00758141  .00000048  00000-0  00000-0 0  9996
2 41310   0.0421 105.8858 0003721 150.3849 103.7009  1.00272209  5992
SES-9                   
1 41380U 16013A   17252.72986401 -.00000360  00000-0  00000+0 0  9990
2 41380   0.0452 313.7853 0001427 202.3813 203.8529  1.00271490  5640
EUTELSAT 65 WEST A      
1 41382U 16014A   17252.21320047 -.00000290  00000-0  00000-0 0  9998
2 41382   0.0267  12.0073 0001863 162.0930 185.9019  1.00271714  5446
IRNSS-1F                
1 41384U 16015A   17252.67014745  .00000140  00000-0  00000+0 0  9998
2 41384   3.9892 262.9946 0020762 187.2055 172.4489  1.00267881  5582
IRNSS-1G                
1 41469U 16027A   17252.40551000 -.00000353  00000-0  00000-0 0  9994
2 41469   4.0608 264.4217 0004383 202.8382 156.8360  1.00277264  5084
JCSAT 2B                
1 41471U 16028A   17252.60324081 -.00000180  00000-0  00000+0 0  9994
2 41471   0.0238 151.6211 0001938  23.5590 184.8218  1.00268289  4972
THAICOM 8               
1 41552U 16031A   17251.81524245 -.00000135  00000-0  00000-0 0  9995
2 41552   0.0698  50.5978 0001372  21.6088 287.8209  1.00269897  4602
INTELSAT 31 (IS-31)     
1 41581U 16035A   17251.29861700 -.00000164  00000-0  00000-0 0  9995
2 41581   0.0221 221.4049 0001713   3.0649 135.5285  1.00270421  4574
BEIDOU G7               
1 41586U 16037A   17252.52361175 -.00000262  00000-0  00000+0 0  9998
2 41586   1.1129 322.1720 0003141 267.1190  92.5337  1.00271436  4683
ABS-2A (MONGOLSAT-1)    
1 41588U 16038A   17251.82572834 -.00000098  00000-0  00000-0 0  9997
2 41588   0.0107 128.3383 0001932 327.0480 264.6482  1.00272772  4591
EUTELSAT 117 WEST B     
1 41589U 16038B   17252.35658352 -.00000026  00000-0  00000+0 0  9997
2 41589   0.0021 358.1559 0000463  47.1430 314.7048  1.00270323  4605
BRISAT                  
1 41591U 16039A   17251.61569545 -.00000211  00000-0  00000+0 0  9990
2 41591   0.0200 174.3386 0002346 355.5114 190.1547  1.00269370  4521
ECHOSTAR 18             
1 41592U 16039B   17252.20255401 -.00000296  00000-0  00000-0 0  9994
2 41592   0.0418 277.7301 0002357 270.7483 171.5304  1.00269852  4515
TIANTONG-1 1            
1 41725U 16048A   17252.63713399 -.00000332  00000-0  00000-0 0  9995
2 41725   4.4708 325.4303 0002309 305.9770  48.2424  1.00273745  4152
JCSAT-16                
1 41729U 16050A   17251.58367446 -.00000106  00000-0  00000-0 0  9992
2 41729   0.0159 152.6944 0001844  19.1493 188.1717  1.00271663  3939
INTELSAT 36 (IS-36)     
1 41747U 16053A   17251.84281858 -.00000039  00000-0  00000-0 0  9991
2 41747   0.0175 101.8219 0002582 221.5673  36.6058  1.00273076  3875
